{"type":"FeatureCollection","features":[{"type":"Feature","properties":{"name":"OSM way 700886351","type":"Unknown","osm_type":"way","osm_id":700886351},"geometry":{"type":"Point","coordinates":[-122.3053167,47.724439]}},{"type":"Feature","properties":{"name":"OSM way 247132084","type":"Unknown","osm_type":"way","osm_id":247132084},"geometry":{"type":"Point","coordinates":[-122.3281765,47.7326533]}},{"type":"Feature","properties":{"name":"OSM way 335996754","type":"Unknown","osm_type":"way","osm_id":335996754},"geometry":{"type":"Point","coordinates":[-122.3276543,47.7273215]}},{"type":"Feature","properties":{"name":"OSM way 335999393","type":"Unknown","osm_type":"way","osm_id":335999393},"geometry":{"type":"Point","coordinates":[-122.3296094,47.7333012]}},{"type":"Feature","properties":{"name":"OSM way 556879479","type":"Unknown","osm_type":"way","osm_id":556879479},"geometry":{"type":"Point","coordinates":[-122.3496045,47.7244113]}},{"type":"Feature","properties":{"name":"OSM way 53594909","type":"yes","osm_type":"way","osm_id":53594909},"geometry":{"type":"Point","coordinates":[-122.3254394,47.7205687]}},{"type":"Feature","properties":{"name":"OSM way 1254240167","type":"private","osm_type":"way","osm_id":1254240167},"geometry":{"type":"Point","coordinates":[-122.3295153,47.7144107]}},{"type":"Feature","properties":{"name":"OSM way 1476727577","type":"Unknown","osm_type":"way","osm_id":1476727577},"geometry":{"type":"Point","coordinates":[-122.3146038,47.7129362]}},{"type":"Feature","properties":{"name":"Raider Field","type":"Unknown","osm_type":"way","osm_id":54394903},"geometry":{"type":"Point","coordinates":[-122.2921531,47.7078198]}},{"type":"Feature","properties":{"name":"OSM way 54395225","type":"Unknown","osm_type":"way","osm_id":54395225},"geometry":{"type":"Point","coordinates":[-122.2934059,47.7112738]}},{"type":"Feature","properties":{"name":"OSM way 1254736214","type":"Unknown","osm_type":"way","osm_id":1254736214},"geometry":{"type":"Point","coordinates":[-122.2939688,47.7089151]}},{"type":"Feature","properties":{"name":"OSM way 1254736222","type":"Unknown","osm_type":"way","osm_id":1254736222},"geometry":{"type":"Point","coordinates":[-122.2927381,47.7089941]}},{"type":"Feature","properties":{"name":"OSM way 334085272","type":"Unknown","osm_type":"way","osm_id":334085272},"geometry":{"type":"Point","coordinates":[-122.3775205,47.695335]}},{"type":"Feature","properties":{"name":"OSM way 334085274","type":"Unknown","osm_type":"way","osm_id":334085274},"geometry":{"type":"Point","coordinates":[-122.3799922,47.6974639]}},{"type":"Feature","properties":{"name":"OSM way 832394436","type":"Unknown","osm_type":"way","osm_id":832394436},"geometry":{"type":"Point","coordinates":[-122.2986983,47.6912088]}},{"type":"Feature","properties":{"name":"OSM way 904596395","type":"Unknown","osm_type":"way","osm_id":904596395},"geometry":{"type":"Point","coordinates":[-122.2982796,47.6910377]}},{"type":"Feature","properties":{"name":"OSM way 393498022","type":"Unknown","osm_type":"way","osm_id":393498022},"geometry":{"type":"Point","coordinates":[-122.3833432,47.6839123]}},{"type":"Feature","properties":{"name":"OSM way 335841166","type":"Unknown","osm_type":"way","osm_id":335841166},"geometry":{"type":"Point","coordinates":[-122.3910411,47.6728518]}},{"type":"Feature","properties":{"name":"OSM way 53600099","type":"Unknown","osm_type":"way","osm_id":53600099},"geometry":{"type":"Point","coordinates":[-122.3805431,47.6781887]}},{"type":"Feature","properties":{"name":"OSM way 160065061","type":"yes","osm_type":"way","osm_id":160065061},"geometry":{"type":"Point","coordinates":[-122.2941857,47.6808511]}},{"type":"Feature","properties":{"name":"OSM way 335994938","type":"Unknown","osm_type":"way","osm_id":335994938},"geometry":{"type":"Point","coordinates":[-122.2808744,47.6806161]}},{"type":"Feature","properties":{"name":"OSM way 155205816","type":"Unknown","osm_type":"way","osm_id":155205816},"geometry":{"type":"Point","coordinates":[-122.257777,47.6796156]}},{"type":"Feature","properties":{"name":"OSM way 155205820","type":"Unknown","osm_type":"way","osm_id":155205820},"geometry":{"type":"Point","coordinates":[-122.2592225,47.6804744]}},{"type":"Feature","properties":{"name":"OSM way 444953001","type":"Unknown","osm_type":"way","osm_id":444953001},"geometry":{"type":"Point","coordinates":[-122.2549098,47.6828092]}},{"type":"Feature","properties":{"name":"OSM way 444953003","type":"Unknown","osm_type":"way","osm_id":444953003},"geometry":{"type":"Point","coordinates":[-122.254355,47.6820611]}},{"type":"Feature","properties":{"name":"OSM way 1394453133","type":"Unknown","osm_type":"way","osm_id":1394453133},"geometry":{"type":"Point","coordinates":[-122.2548589,47.6814054]}},{"type":"Feature","properties":{"name":"OSM way 1394453134","type":"Unknown","osm_type":"way","osm_id":1394453134},"geometry":{"type":"Point","coordinates":[-122.2541535,47.6828068]}},{"type":"Feature","properties":{"name":"OSM way 203269388","type":"Unknown","osm_type":"way","osm_id":203269388},"geometry":{"type":"Point","coordinates":[-122.272867,47.6644496]}},{"type":"Feature","properties":{"name":"OSM way 13480320","type":"Unknown","osm_type":"way","osm_id":13480320},"geometry":{"type":"Point","coordinates":[-122.3413511,47.6670638]}},{"type":"Feature","properties":{"name":"Lower Woodland Park #7","type":"Unknown","osm_type":"way","osm_id":34151443},"geometry":{"type":"Point","coordinates":[-122.3416217,47.6696854]}},{"type":"Feature","properties":{"name":"OSM way 319472107","type":"Unknown","osm_type":"way","osm_id":319472107},"geometry":{"type":"Point","coordinates":[-122.328185,47.6789563]}},{"type":"Feature","properties":{"name":"OSM way 319472108","type":"Unknown","osm_type":"way","osm_id":319472108},"geometry":{"type":"Point","coordinates":[-122.327694,47.6789361]}},{"type":"Feature","properties":{"name":"OSM way 319472109","type":"Unknown","osm_type":"way","osm_id":319472109},"geometry":{"type":"Point","coordinates":[-122.327559,47.6793412]}},{"type":"Feature","properties":{"name":"OSM way 319472110","type":"Unknown","osm_type":"way","osm_id":319472110},"geometry":{"type":"Point","coordinates":[-122.3276101,47.6796936]}},{"type":"Feature","properties":{"name":"OSM way 319472111","type":"Unknown","osm_type":"way","osm_id":319472111},"geometry":{"type":"Point","coordinates":[-122.3282792,47.6797203]}},{"type":"Feature","properties":{"name":"OSM way 319472112","type":"Unknown","osm_type":"way","osm_id":319472112},"geometry":{"type":"Point","coordinates":[-122.3284706,47.6793814]}},{"type":"Feature","properties":{"name":"University of Washington Soccer Field","type":"Unknown","osm_type":"way","osm_id":160438840},"geometry":{"type":"Point","coordinates":[-122.2982439,47.6555835]}},{"type":"Feature","properties":{"name":"Intramural Sports Field #1","type":"Unknown","osm_type":"way","osm_id":160546649},"geometry":{"type":"Point","coordinates":[-122.300583,47.6547504]}},{"type":"Feature","properties":{"name":"OSM way 228396208","type":"Unknown","osm_type":"way","osm_id":228396208},"geometry":{"type":"Point","coordinates":[-122.3991729,47.6412913]}},{"type":"Feature","properties":{"name":"OSM way 1419701695","type":"Unknown","osm_type":"way","osm_id":1419701695},"geometry":{"type":"Point","coordinates":[-122.4121059,47.6706703]}},{"type":"Feature","properties":{"name":"OSM way 533050505","type":"Unknown","osm_type":"way","osm_id":533050505},"geometry":{"type":"Point","coordinates":[-122.3869677,47.6438825]}},{"type":"Feature","properties":{"name":"OSM way 38655935","type":"Unknown","osm_type":"way","osm_id":38655935},"geometry":{"type":"Point","coordinates":[-122.3784984,47.6468563]}},{"type":"Feature","properties":{"name":"OSM way 52639332","type":"Unknown","osm_type":"way","osm_id":52639332},"geometry":{"type":"Point","coordinates":[-122.387685,47.633072]}},{"type":"Feature","properties":{"name":"OSM way 52639333","type":"Unknown","osm_type":"way","osm_id":52639333},"geometry":{"type":"Point","coordinates":[-122.3876648,47.6323911]}},{"type":"Feature","properties":{"name":"OSM way 54931617","type":"Unknown","osm_type":"way","osm_id":54931617},"geometry":{"type":"Point","coordinates":[-122.3797175,47.6475067]}},{"type":"Feature","properties":{"name":"OSM way 41407468","type":"Unknown","osm_type":"way","osm_id":41407468},"geometry":{"type":"Point","coordinates":[-122.3596284,47.6455861]}},{"type":"Feature","properties":{"name":"OSM way 1475179526","type":"Unknown","osm_type":"way","osm_id":1475179526},"geometry":{"type":"Point","coordinates":[-122.3051717,47.6404963]}},{"type":"Feature","properties":{"name":"OSM way 217701053","type":"Unknown","osm_type":"way","osm_id":217701053},"geometry":{"type":"Point","coordinates":[-122.3203721,47.6387387]}},{"type":"Feature","properties":{"name":"OSM way 1301015152","type":"Unknown","osm_type":"way","osm_id":1301015152},"geometry":{"type":"Point","coordinates":[-122.3492035,47.6370158]}},{"type":"Feature","properties":{"name":"OSM way 254399381","type":"Unknown","osm_type":"way","osm_id":254399381},"geometry":{"type":"Point","coordinates":[-122.3602824,47.6351048]}},{"type":"Feature","properties":{"name":"OSM way 254399382","type":"Unknown","osm_type":"way","osm_id":254399382},"geometry":{"type":"Point","coordinates":[-122.3591288,47.6354161]}},{"type":"Feature","properties":{"name":"OSM way 161608585","type":"Unknown","osm_type":"way","osm_id":161608585},"geometry":{"type":"Point","coordinates":[-122.3499003,47.6228093]}},{"type":"Feature","properties":{"name":"Miller Playfield - Soccer","type":"Unknown","osm_type":"way","osm_id":159117855},"geometry":{"type":"Point","coordinates":[-122.3057605,47.6209796]}},{"type":"Feature","properties":{"name":"OSM way 876047764","type":"Unknown","osm_type":"way","osm_id":876047764},"geometry":{"type":"Point","coordinates":[-122.2921612,47.6030182]}},{"type":"Feature","properties":{"name":"Championship Field","type":"Unknown","osm_type":"way","osm_id":330874561},"geometry":{"type":"Point","coordinates":[-122.314853,47.6068547]}},{"type":"Feature","properties":{"name":"OSM way 395900258","type":"Unknown","osm_type":"way","osm_id":395900258},"geometry":{"type":"Point","coordinates":[-122.3174657,47.6072479]}},{"type":"Feature","properties":{"name":"OSM way 185485125","type":"Unknown","osm_type":"way","osm_id":185485125},"geometry":{"type":"Point","coordinates":[-122.3006061,47.6052042]}},{"type":"Feature","properties":{"name":"OSM way 582052470","type":"Unknown","osm_type":"way","osm_id":582052470},"geometry":{"type":"Point","coordinates":[-122.3009704,47.6069766]}},{"type":"Feature","properties":{"name":"OSM way 336531701","type":"Unknown","osm_type":"way","osm_id":336531701},"geometry":{"type":"Point","coordinates":[-122.3039407,47.5938173]}},{"type":"Feature","properties":{"name":"OSM way 336531702","type":"Unknown","osm_type":"way","osm_id":336531702},"geometry":{"type":"Point","coordinates":[-122.303942,47.5941055]}},{"type":"Feature","properties":{"name":"RAVE Soccer Spot","type":"Unknown","osm_type":"way","osm_id":675720761},"geometry":{"type":"Point","coordinates":[-122.3208949,47.6010121]}},{"type":"Feature","properties":{"name":"OSM way 174251770","type":"private","osm_type":"way","osm_id":174251770},"geometry":{"type":"Point","coordinates":[-122.3316317,47.5951491]}},{"type":"Feature","properties":{"name":"OSM way 394478836","type":"Unknown","osm_type":"way","osm_id":394478836},"geometry":{"type":"Point","coordinates":[-122.3153415,47.5858847]}},{"type":"Feature","properties":{"name":"OSM way 934132754","type":"Unknown","osm_type":"way","osm_id":934132754},"geometry":{"type":"Point","coordinates":[-122.3065877,47.5875326]}},{"type":"Feature","properties":{"name":"OSM way 53619726","type":"Unknown","osm_type":"way","osm_id":53619726},"geometry":{"type":"Point","coordinates":[-122.2953773,47.5767333]}},{"type":"Feature","properties":{"name":"OSM way 161081949","type":"Unknown","osm_type":"way","osm_id":161081949},"geometry":{"type":"Point","coordinates":[-122.30108,47.5898947]}},{"type":"Feature","properties":{"name":"OSM way 53610802","type":"Unknown","osm_type":"way","osm_id":53610802},"geometry":{"type":"Point","coordinates":[-122.3854233,47.5780561]}},{"type":"Feature","properties":{"name":"Delridge Playfield","type":"Unknown","osm_type":"way","osm_id":35089147},"geometry":{"type":"Point","coordinates":[-122.3644791,47.5621429]}},{"type":"Feature","properties":{"name":"OSM way 616232192","type":"yes","osm_type":"way","osm_id":616232192},"geometry":{"type":"Point","coordinates":[-122.311838,47.5656754]}},{"type":"Feature","properties":{"name":"OSM way 330263490","type":"Unknown","osm_type":"way","osm_id":330263490},"geometry":{"type":"Point","coordinates":[-122.2925632,47.5617485]}},{"type":"Feature","properties":{"name":"OSM way 160980480","type":"Unknown","osm_type":"way","osm_id":160980480},"geometry":{"type":"Point","coordinates":[-122.2783374,47.5626489]}},{"type":"Feature","properties":{"name":"OSM way 160980481","type":"Unknown","osm_type":"way","osm_id":160980481},"geometry":{"type":"Point","coordinates":[-122.2783596,47.563405]}},{"type":"Feature","properties":{"name":"OSM way 419751336","type":"Unknown","osm_type":"way","osm_id":419751336},"geometry":{"type":"Point","coordinates":[-122.2702273,47.5589636]}},{"type":"Feature","properties":{"name":"OSM way 947457429","type":"Unknown","osm_type":"way","osm_id":947457429},"geometry":{"type":"Point","coordinates":[-122.2953316,47.5512015]}},{"type":"Feature","properties":{"name":"OSM way 1044466713","type":"Unknown","osm_type":"way","osm_id":1044466713},"geometry":{"type":"Point","coordinates":[-122.3156137,47.5522115]}},{"type":"Feature","properties":{"name":"OSM way 1125990588","type":"Unknown","osm_type":"way","osm_id":1125990588},"geometry":{"type":"Point","coordinates":[-122.3154354,47.5531491]}},{"type":"Feature","properties":{"name":"OSM way 337470916","type":"Unknown","osm_type":"way","osm_id":337470916},"geometry":{"type":"Point","coordinates":[-122.3808972,47.5540606]}},{"type":"Feature","properties":{"name":"OSM way 1456175476","type":"Unknown","osm_type":"way","osm_id":1456175476},"geometry":{"type":"Point","coordinates":[-122.3900278,47.540057]}},{"type":"Feature","properties":{"name":"Walt Hundley Playfield","type":"Unknown","osm_type":"way","osm_id":37024751},"geometry":{"type":"Point","coordinates":[-122.3737602,47.5398494]}},{"type":"Feature","properties":{"name":"OSM way 363016659","type":"yes","osm_type":"way","osm_id":363016659},"geometry":{"type":"Point","coordinates":[-122.3213302,47.551347]}},{"type":"Feature","properties":{"name":"OSM way 177233112","type":"Unknown","osm_type":"way","osm_id":177233112},"geometry":{"type":"Point","coordinates":[-122.2971073,47.5377349]}},{"type":"Feature","properties":{"name":"OSM way 50622244","type":"Unknown","osm_type":"way","osm_id":50622244},"geometry":{"type":"Point","coordinates":[-122.3241107,47.5277977]}},{"type":"Feature","properties":{"name":"OSM way 430674641","type":"Unknown","osm_type":"way","osm_id":430674641},"geometry":{"type":"Point","coordinates":[-122.3707634,47.5277065]}},{"type":"Feature","properties":{"name":"OSM way 440973666","type":"Unknown","osm_type":"way","osm_id":440973666},"geometry":{"type":"Point","coordinates":[-122.3685849,47.5204408]}},{"type":"Feature","properties":{"name":"OSM way 337447348","type":"Unknown","osm_type":"way","osm_id":337447348},"geometry":{"type":"Point","coordinates":[-122.3690816,47.53248]}},{"type":"Feature","properties":{"name":"OSM way 337447349","type":"Unknown","osm_type":"way","osm_id":337447349},"geometry":{"type":"Point","coordinates":[-122.36969,47.5327779]}},{"type":"Feature","properties":{"name":"OSM way 88026056","type":"Unknown","osm_type":"way","osm_id":88026056},"geometry":{"type":"Point","coordinates":[-122.2735412,47.525508]}},{"type":"Feature","properties":{"name":"OSM way 170539625","type":"Unknown","osm_type":"way","osm_id":170539625},"geometry":{"type":"Point","coordinates":[-122.3726582,47.7728398]}},{"type":"Feature","properties":{"name":"OSM way 1322442865","type":"Unknown","osm_type":"way","osm_id":1322442865},"geometry":{"type":"Point","coordinates":[-122.3644729,47.7690775]}},{"type":"Feature","properties":{"name":"OSM way 243994422","type":"Unknown","osm_type":"way","osm_id":243994422},"geometry":{"type":"Point","coordinates":[-122.3280157,47.7672827]}},{"type":"Feature","properties":{"name":"OSM way 714498237","type":"Unknown","osm_type":"way","osm_id":714498237},"geometry":{"type":"Point","coordinates":[-122.307957,47.7659814]}},{"type":"Feature","properties":{"name":"OSM way 243446315","type":"Unknown","osm_type":"way","osm_id":243446315},"geometry":{"type":"Point","coordinates":[-122.2873806,47.7620726]}},{"type":"Feature","properties":{"name":"OSM way 992092552","type":"Unknown","osm_type":"way","osm_id":992092552},"geometry":{"type":"Point","coordinates":[-122.3167636,47.7499552]}},{"type":"Feature","properties":{"name":"OSM way 38063161","type":"Unknown","osm_type":"way","osm_id":38063161},"geometry":{"type":"Point","coordinates":[-122.3384683,47.7547158]}},{"type":"Feature","properties":{"name":"OSM way 301007732","type":"Unknown","osm_type":"way","osm_id":301007732},"geometry":{"type":"Point","coordinates":[-122.3326663,47.7601987]}},{"type":"Feature","properties":{"name":"OSM way 1329252037","type":"Unknown","osm_type":"way","osm_id":1329252037},"geometry":{"type":"Point","coordinates":[-122.3495308,47.7532748]}},{"type":"Feature","properties":{"name":"OSM way 173102937","type":"Unknown","osm_type":"way","osm_id":173102937},"geometry":{"type":"Point","coordinates":[-122.3673185,47.752272]}},{"type":"Feature","properties":{"name":"OSM way 38063151","type":"Unknown","osm_type":"way","osm_id":38063151},"geometry":{"type":"Point","coordinates":[-122.3354461,47.7391701]}},{"type":"Feature","properties":{"name":"OSM way 361607079","type":"Unknown","osm_type":"way","osm_id":361607079},"geometry":{"type":"Point","coordinates":[-122.3297317,47.7393172]}},{"type":"Feature","properties":{"name":"OSM way 1316302807","type":"Unknown","osm_type":"way","osm_id":1316302807},"geometry":{"type":"Point","coordinates":[-122.3363638,47.7390027]}},{"type":"Feature","properties":{"name":"OSM way 1316302808","type":"Unknown","osm_type":"way","osm_id":1316302808},"geometry":{"type":"Point","coordinates":[-122.3363746,47.7393723]}},{"type":"Feature","properties":{"name":"OSM way 1316302809","type":"Unknown","osm_type":"way","osm_id":1316302809},"geometry":{"type":"Point","coordinates":[-122.336371,47.7391885]}},{"type":"Feature","properties":{"name":"Field 1","type":"Unknown","osm_type":"way","osm_id":38063206},"geometry":{"type":"Point","coordinates":[-122.3061598,47.745204]}},{"type":"Feature","properties":{"name":"OSM way 243994604","type":"Unknown","osm_type":"way","osm_id":243994604},"geometry":{"type":"Point","coordinates":[-122.3197271,47.7401431]}},{"type":"Feature","properties":{"name":"OSM way 43027511","type":"Unknown","osm_type":"way","osm_id":43027511},"geometry":{"type":"Point","coordinates":[-122.1616152,47.7696948]}},{"type":"Feature","properties":{"name":"OSM way 43027796","type":"Unknown","osm_type":"way","osm_id":43027796},"geometry":{"type":"Point","coordinates":[-122.1594671,47.7711303]}},{"type":"Feature","properties":{"name":"OSM way 167025540","type":"Unknown","osm_type":"way","osm_id":167025540},"geometry":{"type":"Point","coordinates":[-122.2207452,47.7607175]}},{"type":"Feature","properties":{"name":"OSM way 169294543","type":"Unknown","osm_type":"way","osm_id":169294543},"geometry":{"type":"Point","coordinates":[-122.2112261,47.763159]}},{"type":"Feature","properties":{"name":"OSM way 343614906","type":"Unknown","osm_type":"way","osm_id":343614906},"geometry":{"type":"Point","coordinates":[-122.1900624,47.7608526]}},{"type":"Feature","properties":{"name":"OSM way 1291181666","type":"Unknown","osm_type":"way","osm_id":1291181666},"geometry":{"type":"Point","coordinates":[-122.1649982,47.7172647]}},{"type":"Feature","properties":{"name":"OSM way 1291181667","type":"Unknown","osm_type":"way","osm_id":1291181667},"geometry":{"type":"Point","coordinates":[-122.164996,47.7172646]}},{"type":"Feature","properties":{"name":"OSM way 330264022","type":"Unknown","osm_type":"way","osm_id":330264022},"geometry":{"type":"Point","coordinates":[-122.1635651,47.7267612]}},{"type":"Feature","properties":{"name":"OSM way 330267507","type":"yes","osm_type":"way","osm_id":330267507},"geometry":{"type":"Point","coordinates":[-122.1669019,47.7286905]}},{"type":"Feature","properties":{"name":"OSM way 455582455","type":"Unknown","osm_type":"way","osm_id":455582455},"geometry":{"type":"Point","coordinates":[-122.1787761,47.7410933]}},{"type":"Feature","properties":{"name":"OSM way 412861075","type":"Unknown","osm_type":"way","osm_id":412861075},"geometry":{"type":"Point","coordinates":[-122.1906019,47.7457125]}},{"type":"Feature","properties":{"name":"Bergh Field","type":"permissive","osm_type":"way","osm_id":220799598},"geometry":{"type":"Point","coordinates":[-122.1985602,47.7143738]}},{"type":"Feature","properties":{"name":"OSM way 1181460039","type":"Unknown","osm_type":"way","osm_id":1181460039},"geometry":{"type":"Point","coordinates":[-122.2015114,47.714006]}},{"type":"Feature","properties":{"name":"OSM way 822641261","type":"Unknown","osm_type":"way","osm_id":822641261},"geometry":{"type":"Point","coordinates":[-122.193455,47.7019475]}},{"type":"Feature","properties":{"name":"OSM way 822641262","type":"Unknown","osm_type":"way","osm_id":822641262},"geometry":{"type":"Point","coordinates":[-122.1926403,47.7017713]}},{"type":"Feature","properties":{"name":"OSM way 310828712","type":"Unknown","osm_type":"way","osm_id":310828712},"geometry":{"type":"Point","coordinates":[-122.251988,47.7368732]}},{"type":"Feature","properties":{"name":"OSM way 1449258981","type":"Unknown","osm_type":"way","osm_id":1449258981},"geometry":{"type":"Point","coordinates":[-122.2509405,47.7363998]}},{"type":"Feature","properties":{"name":"OSM way 1446332300","type":"Unknown","osm_type":"way","osm_id":1446332300},"geometry":{"type":"Point","coordinates":[-122.2227927,47.7431658]}},{"type":"Feature","properties":{"name":"OSM way 34684407","type":"yes","osm_type":"way","osm_id":34684407},"geometry":{"type":"Point","coordinates":[-122.2384728,47.7238268]}},{"type":"Feature","properties":{"name":"OSM way 310830706","type":"Unknown","osm_type":"way","osm_id":310830706},"geometry":{"type":"Point","coordinates":[-122.2308564,47.715655]}},{"type":"Feature","properties":{"name":"OSM way 310844490","type":"Unknown","osm_type":"way","osm_id":310844490},"geometry":{"type":"Point","coordinates":[-122.1962617,47.692205]}},{"type":"Feature","properties":{"name":"OSM way 310844783","type":"Unknown","osm_type":"way","osm_id":310844783},"geometry":{"type":"Point","coordinates":[-122.1986233,47.6909706]}},{"type":"Feature","properties":{"name":"OSM way 1356975200","type":"Unknown","osm_type":"way","osm_id":1356975200},"geometry":{"type":"Point","coordinates":[-122.1965011,47.6860061]}},{"type":"Feature","properties":{"name":"OSM way 327198454","type":"Unknown","osm_type":"way","osm_id":327198454},"geometry":{"type":"Point","coordinates":[-122.1686015,47.6883167]}},{"type":"Feature","properties":{"name":"OSM way 327309060","type":"Unknown","osm_type":"way","osm_id":327309060},"geometry":{"type":"Point","coordinates":[-122.1810361,47.6687812]}},{"type":"Feature","properties":{"name":"Soccer FIeld 1","type":"Unknown","osm_type":"way","osm_id":31913769},"geometry":{"type":"Point","coordinates":[-122.1450102,47.667681]}},{"type":"Feature","properties":{"name":"Soccer Field 2","type":"Unknown","osm_type":"way","osm_id":413883024},"geometry":{"type":"Point","coordinates":[-122.1463635,47.66894]}},{"type":"Feature","properties":{"name":"OSM way 186982048","type":"Unknown","osm_type":"way","osm_id":186982048},"geometry":{"type":"Point","coordinates":[-122.1948271,47.656702]}},{"type":"Feature","properties":{"name":"OSM way 239020273","type":"Unknown","osm_type":"way","osm_id":239020273},"geometry":{"type":"Point","coordinates":[-122.1401514,47.6613564]}},{"type":"Feature","properties":{"name":"Microsoft Commons - Soccer Field","type":"Unknown","osm_type":"way","osm_id":135576077},"geometry":{"type":"Point","coordinates":[-122.1390587,47.6442469]}},{"type":"Feature","properties":{"name":"OSM way 229130773","type":"Unknown","osm_type":"way","osm_id":229130773},"geometry":{"type":"Point","coordinates":[-122.1393149,47.6520316]}},{"type":"Feature","properties":{"name":"OSM way 1206238597","type":"Unknown","osm_type":"way","osm_id":1206238597},"geometry":{"type":"Point","coordinates":[-122.1285649,47.6399163]}},{"type":"Feature","properties":{"name":"OSM way 734693968","type":"Unknown","osm_type":"way","osm_id":734693968},"geometry":{"type":"Point","coordinates":[-122.1197169,47.6298509]}},{"type":"Feature","properties":{"name":"OSM way 735358396","type":"Unknown","osm_type":"way","osm_id":735358396},"geometry":{"type":"Point","coordinates":[-122.1256887,47.6304502]}},{"type":"Feature","properties":{"name":"OSM way 75223725","type":"Unknown","osm_type":"way","osm_id":75223725},"geometry":{"type":"Point","coordinates":[-122.1181472,47.6212411]}},{"type":"Feature","properties":{"name":"OSM way 480984651","type":"Unknown","osm_type":"way","osm_id":480984651},"geometry":{"type":"Point","coordinates":[-122.1169609,47.6211792]}},{"type":"Feature","properties":{"name":"OSM way 1049173741","type":"Unknown","osm_type":"way","osm_id":1049173741},"geometry":{"type":"Point","coordinates":[-122.1397044,47.6248711]}},{"type":"Feature","properties":{"name":"OSM way 1156716698","type":"Unknown","osm_type":"way","osm_id":1156716698},"geometry":{"type":"Point","coordinates":[-122.1398439,47.6129165]}},{"type":"Feature","properties":{"name":"OSM way 160124617","type":"Unknown","osm_type":"way","osm_id":160124617},"geometry":{"type":"Point","coordinates":[-122.124103,47.6003931]}},{"type":"Feature","properties":{"name":"Robinswood Park Soccer Field #1","type":"Unknown","osm_type":"way","osm_id":160075084},"geometry":{"type":"Point","coordinates":[-122.1406419,47.5897857]}},{"type":"Feature","properties":{"name":"Robinswood Park Soccer Field #2","type":"Unknown","osm_type":"way","osm_id":160075096},"geometry":{"type":"Point","coordinates":[-122.1415744,47.5900741]}},{"type":"Feature","properties":{"name":"OSM way 256522283","type":"Unknown","osm_type":"way","osm_id":256522283},"geometry":{"type":"Point","coordinates":[-122.1571906,47.586049]}},{"type":"Feature","properties":{"name":"OSM way 381669455","type":"Unknown","osm_type":"way","osm_id":381669455},"geometry":{"type":"Point","coordinates":[-122.1407514,47.5933592]}},{"type":"Feature","properties":{"name":"OSM way 381669459","type":"Unknown","osm_type":"way","osm_id":381669459},"geometry":{"type":"Point","coordinates":[-122.1417983,47.5931141]}},{"type":"Feature","properties":{"name":"OSM way 688191088","type":"Unknown","osm_type":"way","osm_id":688191088},"geometry":{"type":"Point","coordinates":[-122.1511062,47.5879116]}},{"type":"Feature","properties":{"name":"OSM way 1042511644","type":"private","osm_type":"way","osm_id":1042511644},"geometry":{"type":"Point","coordinates":[-122.1050268,47.5704181]}},{"type":"Feature","properties":{"name":"OSM way 32025468","type":"Unknown","osm_type":"way","osm_id":32025468},"geometry":{"type":"Point","coordinates":[-122.1760539,47.6080653]}},{"type":"Feature","properties":{"name":"OSM way 208435618","type":"Unknown","osm_type":"way","osm_id":208435618},"geometry":{"type":"Point","coordinates":[-122.1734082,47.6047756]}},{"type":"Feature","properties":{"name":"OSM way 1387921529","type":"Unknown","osm_type":"way","osm_id":1387921529},"geometry":{"type":"Point","coordinates":[-122.1769386,47.6115707]}},{"type":"Feature","properties":{"name":"OSM way 612886002","type":"Unknown","osm_type":"way","osm_id":612886002},"geometry":{"type":"Point","coordinates":[-122.1498414,47.612994]}},{"type":"Feature","properties":{"name":"OSM way 722761229","type":"Unknown","osm_type":"way","osm_id":722761229},"geometry":{"type":"Point","coordinates":[-122.1518995,47.6184958]}},{"type":"Feature","properties":{"name":"OSM way 1043581215","type":"Unknown","osm_type":"way","osm_id":1043581215},"geometry":{"type":"Point","coordinates":[-122.1505273,47.6086094]}},{"type":"Feature","properties":{"name":"OSM way 392540544","type":"Unknown","osm_type":"way","osm_id":392540544},"geometry":{"type":"Point","coordinates":[-122.1978426,47.6052664]}},{"type":"Feature","properties":{"name":"Chinook Soccer Field","type":"Unknown","osm_type":"way","osm_id":987542229},"geometry":{"type":"Point","coordinates":[-122.2106111,47.6296512]}},{"type":"Feature","properties":{"name":"OSM way 987542608","type":"Unknown","osm_type":"way","osm_id":987542608},"geometry":{"type":"Point","coordinates":[-122.2130506,47.6308998]}},{"type":"Feature","properties":{"name":"OSM way 344300159","type":"yes","osm_type":"way","osm_id":344300159},"geometry":{"type":"Point","coordinates":[-122.2486486,47.5910217]}},{"type":"Feature","properties":{"name":"OSM way 344300160","type":"Unknown","osm_type":"way","osm_id":344300160},"geometry":{"type":"Point","coordinates":[-122.2419985,47.5918258]}},{"type":"Feature","properties":{"name":"OSM way 679170678","type":"Unknown","osm_type":"way","osm_id":679170678},"geometry":{"type":"Point","coordinates":[-122.2314048,47.5736688]}},{"type":"Feature","properties":{"name":"OSM way 876356834","type":"Unknown","osm_type":"way","osm_id":876356834},"geometry":{"type":"Point","coordinates":[-122.2229278,47.5497577]}},{"type":"Feature","properties":{"name":"OSM way 1459465518","type":"Unknown","osm_type":"way","osm_id":1459465518},"geometry":{"type":"Point","coordinates":[-122.2230133,47.5511273]}},{"type":"Feature","properties":{"name":"OSM way 246575653","type":"Unknown","osm_type":"way","osm_id":246575653},"geometry":{"type":"Point","coordinates":[-122.2285757,47.535685]}},{"type":"Feature","properties":{"name":"OSM way 1459469859","type":"Unknown","osm_type":"way","osm_id":1459469859},"geometry":{"type":"Point","coordinates":[-122.1817608,47.5557366]}},{"type":"Feature","properties":{"name":"OSM way 1459469860","type":"Unknown","osm_type":"way","osm_id":1459469860},"geometry":{"type":"Point","coordinates":[-122.1817637,47.5552256]}},{"type":"Feature","properties":{"name":"OSM way 272212139","type":"Unknown","osm_type":"way","osm_id":272212139},"geometry":{"type":"Point","coordinates":[-122.1829623,47.5384786]}},{"type":"Feature","properties":{"name":"OSM way 272212147","type":"Unknown","osm_type":"way","osm_id":272212147},"geometry":{"type":"Point","coordinates":[-122.1828948,47.5404635]}},{"type":"Feature","properties":{"name":"OSM way 72123694","type":"Unknown","osm_type":"way","osm_id":72123694},"geometry":{"type":"Point","coordinates":[-122.1810775,47.5481356]}},{"type":"Feature","properties":{"name":"OSM way 392387318","type":"Unknown","osm_type":"way","osm_id":392387318},"geometry":{"type":"Point","coordinates":[-122.1598771,47.5738274]}},{"type":"Feature","properties":{"name":"OSM way 383728398","type":"permissive","osm_type":"way","osm_id":383728398},"geometry":{"type":"Point","coordinates":[-122.1512104,47.5640399]}},{"type":"Feature","properties":{"name":"OSM way 685103708","type":"yes","osm_type":"way","osm_id":685103708},"geometry":{"type":"Point","coordinates":[-122.1377837,47.5692715]}},{"type":"Feature","properties":{"name":"OSM way 390854245","type":"private","osm_type":"way","osm_id":390854245},"geometry":{"type":"Point","coordinates":[-122.1148424,47.5476728]}},{"type":"Feature","properties":{"name":"OSM way 1450139133","type":"Unknown","osm_type":"way","osm_id":1450139133},"geometry":{"type":"Point","coordinates":[-122.0639752,47.5309904]}},{"type":"Feature","properties":{"name":"OSM way 755004940","type":"Unknown","osm_type":"way","osm_id":755004940},"geometry":{"type":"Point","coordinates":[-122.1172925,47.5611428]}},{"type":"Feature","properties":{"name":"The Joe","type":"yes","osm_type":"way","osm_id":499403867},"geometry":{"type":"Point","coordinates":[-122.154715,47.5036523]}},{"type":"Feature","properties":{"name":"Honey Dew Athletic Field","type":"Unknown","osm_type":"relation","osm_id":11216017},"geometry":{"type":"Point","coordinates":[-122.1606994,47.4964055]}},{"type":"Feature","properties":{"name":"OSM way 1104335276","type":"Unknown","osm_type":"way","osm_id":1104335276},"geometry":{"type":"Point","coordinates":[-122.1832567,47.5039106]}},{"type":"Feature","properties":{"name":"OSM way 180399606","type":"Unknown","osm_type":"way","osm_id":180399606},"geometry":{"type":"Point","coordinates":[-122.1474607,47.4677375]}},{"type":"Feature","properties":{"name":"OSM way 706465742","type":"Unknown","osm_type":"way","osm_id":706465742},"geometry":{"type":"Point","coordinates":[-122.1483405,47.4680303]}},{"type":"Feature","properties":{"name":"OSM way 706465743","type":"Unknown","osm_type":"way","osm_id":706465743},"geometry":{"type":"Point","coordinates":[-122.148474,47.4676122]}},{"type":"Feature","properties":{"name":"OSM way 122317124","type":"Unknown","osm_type":"way","osm_id":122317124},"geometry":{"type":"Point","coordinates":[-122.1959125,47.4825211]}},{"type":"Feature","properties":{"name":"OSM way 470079404","type":"Unknown","osm_type":"way","osm_id":470079404},"geometry":{"type":"Point","coordinates":[-122.1810593,47.4457545]}},{"type":"Feature","properties":{"name":"OSM way 1450138544","type":"Unknown","osm_type":"way","osm_id":1450138544},"geometry":{"type":"Point","coordinates":[-122.1657861,47.4531207]}},{"type":"Feature","properties":{"name":"OSM way 640781239","type":"yes","osm_type":"way","osm_id":640781239},"geometry":{"type":"Point","coordinates":[-122.1997786,47.4565745]}},{"type":"Feature","properties":{"name":"OSM way 437482049","type":"Unknown","osm_type":"way","osm_id":437482049},"geometry":{"type":"Point","coordinates":[-122.2337183,47.4930964]}},{"type":"Feature","properties":{"name":"OSM way 330265318","type":"Unknown","osm_type":"way","osm_id":330265318},"geometry":{"type":"Point","coordinates":[-122.2512657,47.4932546]}},{"type":"Feature","properties":{"name":"OSM way 1352423453","type":"Unknown","osm_type":"way","osm_id":1352423453},"geometry":{"type":"Point","coordinates":[-122.2437541,47.4951507]}},{"type":"Feature","properties":{"name":"Field #8","type":"Unknown","osm_type":"way","osm_id":35157062},"geometry":{"type":"Point","coordinates":[-122.251137,47.4707553]}},{"type":"Feature","properties":{"name":"Field #7","type":"Unknown","osm_type":"way","osm_id":35157063},"geometry":{"type":"Point","coordinates":[-122.2509053,47.4698046]}},{"type":"Feature","properties":{"name":"Field #6","type":"Unknown","osm_type":"way","osm_id":35157064},"geometry":{"type":"Point","coordinates":[-122.2508813,47.468879]}},{"type":"Feature","properties":{"name":"Field #5","type":"Unknown","osm_type":"way","osm_id":35157065},"geometry":{"type":"Point","coordinates":[-122.2503196,47.4679148]}},{"type":"Feature","properties":{"name":"Field #2","type":"Unknown","osm_type":"way","osm_id":35157066},"geometry":{"type":"Point","coordinates":[-122.2488156,47.4692831]}},{"type":"Feature","properties":{"name":"Starfire Stadium","type":"Unknown","osm_type":"way","osm_id":35157067},"geometry":{"type":"Point","coordinates":[-122.2471418,47.4698456]}},{"type":"Feature","properties":{"name":"Field #3","type":"Unknown","osm_type":"way","osm_id":35157068},"geometry":{"type":"Point","coordinates":[-122.2485245,47.4704208]}},{"type":"Feature","properties":{"name":"Field #4","type":"Unknown","osm_type":"way","osm_id":35157070},"geometry":{"type":"Point","coordinates":[-122.2477775,47.4707748]}},{"type":"Feature","properties":{"name":"Field #12","type":"Unknown","osm_type":"way","osm_id":355774479},"geometry":{"type":"Point","coordinates":[-122.2515739,47.4725421]}},{"type":"Feature","properties":{"name":"Field #11","type":"Unknown","osm_type":"way","osm_id":355774480},"geometry":{"type":"Point","coordinates":[-122.2506283,47.4729856]}},{"type":"Feature","properties":{"name":"Field #9","type":"Unknown","osm_type":"way","osm_id":355774481},"geometry":{"type":"Point","coordinates":[-122.2508591,47.4718694]}},{"type":"Feature","properties":{"name":"Field #10","type":"Unknown","osm_type":"way","osm_id":355774482},"geometry":{"type":"Point","coordinates":[-122.2498814,47.4723346]}},{"type":"Feature","properties":{"name":"OSM way 460258703","type":"Unknown","osm_type":"way","osm_id":460258703},"geometry":{"type":"Point","coordinates":[-122.269154,47.4791084]}},{"type":"Feature","properties":{"name":"Pavilion Field","type":"Unknown","osm_type":"way","osm_id":460260435},"geometry":{"type":"Point","coordinates":[-122.248097,47.4694989]}},{"type":"Feature","properties":{"name":"OSM way 1432698266","type":"private","osm_type":"way","osm_id":1432698266},"geometry":{"type":"Point","coordinates":[-122.2356289,47.4618217]}},{"type":"Feature","properties":{"name":"OSM way 1432698268","type":"private","osm_type":"way","osm_id":1432698268},"geometry":{"type":"Point","coordinates":[-122.2366024,47.4607862]}},{"type":"Feature","properties":{"name":"OSM way 1432698271","type":"private","osm_type":"way","osm_id":1432698271},"geometry":{"type":"Point","coordinates":[-122.2361451,47.4599255]}},{"type":"Feature","properties":{"name":"OSM way 1178423158","type":"Unknown","osm_type":"way","osm_id":1178423158},"geometry":{"type":"Point","coordinates":[-122.3530029,47.5106787]}},{"type":"Feature","properties":{"name":"OSM way 172878851","type":"Unknown","osm_type":"way","osm_id":172878851},"geometry":{"type":"Point","coordinates":[-122.3449701,47.5013815]}},{"type":"Feature","properties":{"name":"OSM way 1512056531","type":"Unknown","osm_type":"way","osm_id":1512056531},"geometry":{"type":"Point","coordinates":[-122.3408202,47.4999673]}},{"type":"Feature","properties":{"name":"OSM way 1459591983","type":"Unknown","osm_type":"way","osm_id":1459591983},"geometry":{"type":"Point","coordinates":[-122.3168778,47.50162]}},{"type":"Feature","properties":{"name":"OSM way 407833752","type":"Unknown","osm_type":"way","osm_id":407833752},"geometry":{"type":"Point","coordinates":[-122.311806,47.4809602]}},{"type":"Feature","properties":{"name":"OSM way 414873149","type":"Unknown","osm_type":"way","osm_id":414873149},"geometry":{"type":"Point","coordinates":[-122.3098753,47.4880275]}},{"type":"Feature","properties":{"name":"OSM way 414873151","type":"Unknown","osm_type":"way","osm_id":414873151},"geometry":{"type":"Point","coordinates":[-122.3097094,47.4872957]}},{"type":"Feature","properties":{"name":"OSM way 869951045","type":"Unknown","osm_type":"way","osm_id":869951045},"geometry":{"type":"Point","coordinates":[-122.2996089,47.4785105]}},{"type":"Feature","properties":{"name":"OSM way 311214053","type":"Unknown","osm_type":"way","osm_id":311214053},"geometry":{"type":"Point","coordinates":[-122.4549244,47.4268024]}},{"type":"Feature","properties":{"name":"OSM way 469338456","type":"Unknown","osm_type":"way","osm_id":469338456},"geometry":{"type":"Point","coordinates":[-122.457037,47.4252484]}},{"type":"Feature","properties":{"name":"OSM way 550341558","type":"Unknown","osm_type":"way","osm_id":550341558},"geometry":{"type":"Point","coordinates":[-122.5002905,47.4496806]}},{"type":"Feature","properties":{"name":"OSM way 630396078","type":"Unknown","osm_type":"way","osm_id":630396078},"geometry":{"type":"Point","coordinates":[-122.4587894,47.4616172]}},{"type":"Feature","properties":{"name":"OSM way 94786063","type":"Unknown","osm_type":"way","osm_id":94786063},"geometry":{"type":"Point","coordinates":[-122.3263544,47.4653091]}},{"type":"Feature","properties":{"name":"OSM way 94786065","type":"Unknown","osm_type":"way","osm_id":94786065},"geometry":{"type":"Point","coordinates":[-122.3265559,47.4637064]}},{"type":"Feature","properties":{"name":"OSM way 558698923","type":"Unknown","osm_type":"way","osm_id":558698923},"geometry":{"type":"Point","coordinates":[-122.3266566,47.4642358]}},{"type":"Feature","properties":{"name":"OSM way 469727779","type":"Unknown","osm_type":"way","osm_id":469727779},"geometry":{"type":"Point","coordinates":[-122.274491,47.4372444]}},{"type":"Feature","properties":{"name":"OSM way 469727782","type":"Unknown","osm_type":"way","osm_id":469727782},"geometry":{"type":"Point","coordinates":[-122.274513,47.4361764]}},{"type":"Feature","properties":{"name":"OSM way 469727792","type":"Unknown","osm_type":"way","osm_id":469727792},"geometry":{"type":"Point","coordinates":[-122.2756564,47.4361885]}},{"type":"Feature","properties":{"name":"OSM way 1503380320","type":"permit","osm_type":"way","osm_id":1503380320},"geometry":{"type":"Point","coordinates":[-122.2779707,47.4369865]}},{"type":"Feature","properties":{"name":"OSM way 703983497","type":"Unknown","osm_type":"way","osm_id":703983497},"geometry":{"type":"Point","coordinates":[-122.3282082,47.4377874]}},{"type":"Feature","properties":{"name":"OSM way 703983498","type":"Unknown","osm_type":"way","osm_id":703983498},"geometry":{"type":"Point","coordinates":[-122.3277487,47.4377751]}},{"type":"Feature","properties":{"name":"OSM way 478927453","type":"Unknown","osm_type":"way","osm_id":478927453},"geometry":{"type":"Point","coordinates":[-122.3282184,47.4215067]}},{"type":"Feature","properties":{"name":"OSM way 437329590","type":"Unknown","osm_type":"way","osm_id":437329590},"geometry":{"type":"Point","coordinates":[-122.3091911,47.4042764]}},{"type":"Feature","properties":{"name":"OSM way 558634239","type":"Unknown","osm_type":"way","osm_id":558634239},"geometry":{"type":"Point","coordinates":[-122.322008,47.4050274]}},{"type":"Feature","properties":{"name":"OSM way 558634242","type":"Unknown","osm_type":"way","osm_id":558634242},"geometry":{"type":"Point","coordinates":[-122.3215245,47.4051286]}},{"type":"Feature","properties":{"name":"OSM way 558634245","type":"Unknown","osm_type":"way","osm_id":558634245},"geometry":{"type":"Point","coordinates":[-122.3214371,47.405491]}},{"type":"Feature","properties":{"name":"OSM way 173001607","type":"Unknown","osm_type":"way","osm_id":173001607},"geometry":{"type":"Point","coordinates":[-122.3049422,47.3994592]}},{"type":"Feature","properties":{"name":"Diego's Field","type":"Unknown","osm_type":"way","osm_id":1319918471},"geometry":{"type":"Point","coordinates":[-122.2826111,47.3710714]}},{"type":"Feature","properties":{"name":"OSM way 763287558","type":"Unknown","osm_type":"way","osm_id":763287558},"geometry":{"type":"Point","coordinates":[-122.2602655,47.3838311]}},{"type":"Feature","properties":{"name":"OSM way 356358179","type":"Unknown","osm_type":"way","osm_id":356358179},"geometry":{"type":"Point","coordinates":[-122.190345,47.3812245]}},{"type":"Feature","properties":{"name":"Soccer 1","type":"Unknown","osm_type":"way","osm_id":419631423},"geometry":{"type":"Point","coordinates":[-122.1662626,47.3780177]}},{"type":"Feature","properties":{"name":"Soccer 3","type":"Unknown","osm_type":"way","osm_id":419631424},"geometry":{"type":"Point","coordinates":[-122.1666306,47.3792548]}},{"type":"Feature","properties":{"name":"Soccer 2","type":"Unknown","osm_type":"way","osm_id":419631425},"geometry":{"type":"Point","coordinates":[-122.1660312,47.3791018]}},{"type":"Feature","properties":{"name":"OSM way 505476041","type":"Unknown","osm_type":"way","osm_id":505476041},"geometry":{"type":"Point","coordinates":[-122.1721859,47.3430831]}},{"type":"Feature","properties":{"name":"OSM way 1473790958","type":"Unknown","osm_type":"way","osm_id":1473790958},"geometry":{"type":"Point","coordinates":[-122.1933183,47.3657558]}},{"type":"Feature","properties":{"name":"OSM way 437531943","type":"Unknown","osm_type":"way","osm_id":437531943},"geometry":{"type":"Point","coordinates":[-122.2172704,47.3634347]}},{"type":"Feature","properties":{"name":"OSM way 437531944","type":"Unknown","osm_type":"way","osm_id":437531944},"geometry":{"type":"Point","coordinates":[-122.2164282,47.363415]}},{"type":"Feature","properties":{"name":"OSM way 437531945","type":"Unknown","osm_type":"way","osm_id":437531945},"geometry":{"type":"Point","coordinates":[-122.2164249,47.3623135]}},{"type":"Feature","properties":{"name":"OSM way 437531946","type":"Unknown","osm_type":"way","osm_id":437531946},"geometry":{"type":"Point","coordinates":[-122.2171063,47.3623336]}},{"type":"Feature","properties":{"name":"OSM way 437531947","type":"Unknown","osm_type":"way","osm_id":437531947},"geometry":{"type":"Point","coordinates":[-122.2179993,47.3635344]}},{"type":"Feature","properties":{"name":"OSM way 426268471","type":"Unknown","osm_type":"way","osm_id":426268471},"geometry":{"type":"Point","coordinates":[-122.2513392,47.3809576]}},{"type":"Feature","properties":{"name":"OSM way 170305762","type":"Unknown","osm_type":"way","osm_id":170305762},"geometry":{"type":"Point","coordinates":[-122.289802,47.3618979]}},{"type":"Feature","properties":{"name":"OSM way 1475145321","type":"Unknown","osm_type":"way","osm_id":1475145321},"geometry":{"type":"Point","coordinates":[-122.2822262,47.3603493]}},{"type":"Feature","properties":{"name":"OSM way 927697643","type":"Unknown","osm_type":"way","osm_id":927697643},"geometry":{"type":"Point","coordinates":[-122.2811125,47.3272367]}},{"type":"Feature","properties":{"name":"Karl Grosch Field","type":"Unknown","osm_type":"way","osm_id":161413735},"geometry":{"type":"Point","coordinates":[-122.2983365,47.3211536]}},{"type":"Feature","properties":{"name":"OSM way 651199485","type":"Unknown","osm_type":"way","osm_id":651199485},"geometry":{"type":"Point","coordinates":[-122.3578289,47.3247306]}},{"type":"Feature","properties":{"name":"OSM way 163556282","type":"Unknown","osm_type":"way","osm_id":163556282},"geometry":{"type":"Point","coordinates":[-122.357474,47.3206987]}},{"type":"Feature","properties":{"name":"OSM way 363983492","type":"Unknown","osm_type":"way","osm_id":363983492},"geometry":{"type":"Point","coordinates":[-122.314943,47.3358001]}},{"type":"Feature","properties":{"name":"OSM way 687742312","type":"Unknown","osm_type":"way","osm_id":687742312},"geometry":{"type":"Point","coordinates":[-122.3150484,47.3289704]}},{"type":"Feature","properties":{"name":"OSM way 1450138294","type":"Unknown","osm_type":"way","osm_id":1450138294},"geometry":{"type":"Point","coordinates":[-122.3170758,47.3275826]}},{"type":"Feature","properties":{"name":"OSM way 540119218","type":"Unknown","osm_type":"way","osm_id":540119218},"geometry":{"type":"Point","coordinates":[-122.3157105,47.2764331]}},{"type":"Feature","properties":{"name":"OSM way 165291875","type":"Unknown","osm_type":"way","osm_id":165291875},"geometry":{"type":"Point","coordinates":[-122.3943925,47.3084556]}},{"type":"Feature","properties":{"name":"OSM way 171751841","type":"private","osm_type":"way","osm_id":171751841},"geometry":{"type":"Point","coordinates":[-122.3775523,47.2991646]}},{"type":"Feature","properties":{"name":"OSM way 171817399","type":"private","osm_type":"way","osm_id":171817399},"geometry":{"type":"Point","coordinates":[-122.3514948,47.3109065]}},{"type":"Feature","properties":{"name":"OSM way 1377031857","type":"private","osm_type":"way","osm_id":1377031857},"geometry":{"type":"Point","coordinates":[-122.3588912,47.314729]}},{"type":"Feature","properties":{"name":"OSM way 161254280","type":"Unknown","osm_type":"way","osm_id":161254280},"geometry":{"type":"Point","coordinates":[-122.3530733,47.2992199]}},{"type":"Feature","properties":{"name":"5, 6","type":"Unknown","osm_type":"way","osm_id":61684085},"geometry":{"type":"Point","coordinates":[-122.319475,47.3080143]}},{"type":"Feature","properties":{"name":"7","type":"Unknown","osm_type":"way","osm_id":619889922},"geometry":{"type":"Point","coordinates":[-122.3191552,47.3061084]}},{"type":"Feature","properties":{"name":"8","type":"Unknown","osm_type":"way","osm_id":619889923},"geometry":{"type":"Point","coordinates":[-122.3199483,47.3051829]}},{"type":"Feature","properties":{"name":"OSM way 1361299637","type":"private","osm_type":"way","osm_id":1361299637},"geometry":{"type":"Point","coordinates":[-122.2877977,47.3000186]}},{"type":"Feature","properties":{"name":"OSM way 475447611","type":"Unknown","osm_type":"way","osm_id":475447611},"geometry":{"type":"Point","coordinates":[-122.2210776,47.3118516]}},{"type":"Feature","properties":{"name":"OSM way 89368771","type":"Unknown","osm_type":"way","osm_id":89368771},"geometry":{"type":"Point","coordinates":[-122.23904,47.2920741]}},{"type":"Feature","properties":{"name":"OSM way 89368796","type":"Unknown","osm_type":"way","osm_id":89368796},"geometry":{"type":"Point","coordinates":[-122.2375808,47.2920989]}},{"type":"Feature","properties":{"name":"OSM way 1297731161","type":"private","osm_type":"way","osm_id":1297731161},"geometry":{"type":"Point","coordinates":[-122.2161767,47.2790449]}},{"type":"Feature","properties":{"name":"OSM way 1434289756","type":"Unknown","osm_type":"way","osm_id":1434289756},"geometry":{"type":"Point","coordinates":[-122.218084,47.2928215]}},{"type":"Feature","properties":{"name":"OSM way 1517875380","type":"private","osm_type":"way","osm_id":1517875380},"geometry":{"type":"Point","coordinates":[-122.2484036,47.2703308]}},{"type":"Feature","properties":{"name":"Yellow Field","type":"Unknown","osm_type":"way","osm_id":418008592},"geometry":{"type":"Point","coordinates":[-122.2026333,47.2804255]}},{"type":"Feature","properties":{"name":"White Field","type":"Unknown","osm_type":"way","osm_id":418008597},"geometry":{"type":"Point","coordinates":[-122.2017266,47.2801815]}},{"type":"Feature","properties":{"name":"OSM way 478236713","type":"Unknown","osm_type":"way","osm_id":478236713},"geometry":{"type":"Point","coordinates":[-122.1781343,47.3186093]}},{"type":"Feature","properties":{"name":"OSM way 362138276","type":"Unknown","osm_type":"way","osm_id":362138276},"geometry":{"type":"Point","coordinates":[-122.0090145,47.1970493]}},{"type":"Feature","properties":{"name":"OSM way 350231782","type":"Unknown","osm_type":"way","osm_id":350231782},"geometry":{"type":"Point","coordinates":[-122.0527896,47.3317013]}},{"type":"Feature","properties":{"name":"OSM way 515448964","type":"Unknown","osm_type":"way","osm_id":515448964},"geometry":{"type":"Point","coordinates":[-122.0588666,47.3299843]}},{"type":"Feature","properties":{"name":"Field 4","type":"Unknown","osm_type":"way","osm_id":501226853},"geometry":{"type":"Point","coordinates":[-121.9811722,47.3569791]}},{"type":"Feature","properties":{"name":"OSM way 449480205","type":"Unknown","osm_type":"way","osm_id":449480205},"geometry":{"type":"Point","coordinates":[-122.0301815,47.3481996]}},{"type":"Feature","properties":{"name":"OSM way 504855918","type":"Unknown","osm_type":"way","osm_id":504855918},"geometry":{"type":"Point","coordinates":[-122.031043,47.3572893]}},{"type":"Feature","properties":{"name":"OSM way 703806701","type":"Unknown","osm_type":"way","osm_id":703806701},"geometry":{"type":"Point","coordinates":[-122.0232393,47.3569674]}},{"type":"Feature","properties":{"name":"OSM way 703806702","type":"Unknown","osm_type":"way","osm_id":703806702},"geometry":{"type":"Point","coordinates":[-122.0222273,47.3569553]}},{"type":"Feature","properties":{"name":"OSM way 461439332","type":"Unknown","osm_type":"way","osm_id":461439332},"geometry":{"type":"Point","coordinates":[-122.1044115,47.3863682]}},{"type":"Feature","properties":{"name":"OSM way 243730595","type":"Unknown","osm_type":"way","osm_id":243730595},"geometry":{"type":"Point","coordinates":[-122.1225117,47.3717296]}},{"type":"Feature","properties":{"name":"OSM way 511530077","type":"Unknown","osm_type":"way","osm_id":511530077},"geometry":{"type":"Point","coordinates":[-122.0669583,47.4639071]}},{"type":"Feature","properties":{"name":"OSM way 511530078","type":"Unknown","osm_type":"way","osm_id":511530078},"geometry":{"type":"Point","coordinates":[-122.0674641,47.4638252]}},{"type":"Feature","properties":{"name":"OSM way 410975136","type":"Unknown","osm_type":"way","osm_id":410975136},"geometry":{"type":"Point","coordinates":[-122.1190156,47.4402427]}},{"type":"Feature","properties":{"name":"OSM way 410975137","type":"Unknown","osm_type":"way","osm_id":410975137},"geometry":{"type":"Point","coordinates":[-122.1179276,47.4402338]}},{"type":"Feature","properties":{"name":"OSM way 460390013","type":"Unknown","osm_type":"way","osm_id":460390013},"geometry":{"type":"Point","coordinates":[-122.1150768,47.4722392]}},{"type":"Feature","properties":{"name":"OSM way 684245989","type":"Unknown","osm_type":"way","osm_id":684245989},"geometry":{"type":"Point","coordinates":[-122.0227781,47.4679263]}},{"type":"Feature","properties":{"name":"OSM way 1450139326","type":"Unknown","osm_type":"way","osm_id":1450139326},"geometry":{"type":"Point","coordinates":[-122.0306887,47.5243155]}},{"type":"Feature","properties":{"name":"OSM way 1050811734","type":"Unknown","osm_type":"way","osm_id":1050811734},"geometry":{"type":"Point","coordinates":[-122.0705771,47.5502708]}},{"type":"Feature","properties":{"name":"OSM way 223359823","type":"Unknown","osm_type":"way","osm_id":223359823},"geometry":{"type":"Point","coordinates":[-122.0078927,47.5769291]}},{"type":"Feature","properties":{"name":"Cascade Ridge Sandfield","type":"Unknown","osm_type":"way","osm_id":230929582},"geometry":{"type":"Point","coordinates":[-121.9720572,47.5910091]}},{"type":"Feature","properties":{"name":"OSM way 906638957","type":"Unknown","osm_type":"way","osm_id":906638957},"geometry":{"type":"Point","coordinates":[-121.9782919,47.598805]}},{"type":"Feature","properties":{"name":"OSM way 1211748142","type":"Unknown","osm_type":"way","osm_id":1211748142},"geometry":{"type":"Point","coordinates":[-122.0135359,47.6236817]}},{"type":"Feature","properties":{"name":"OSM way 1314042958","type":"Unknown","osm_type":"way","osm_id":1314042958},"geometry":{"type":"Point","coordinates":[-121.9720694,47.5909784]}},{"type":"Feature","properties":{"name":"OSM way 1359153920","type":"Unknown","osm_type":"way","osm_id":1359153920},"geometry":{"type":"Point","coordinates":[-122.0781296,47.6022491]}},{"type":"Feature","properties":{"name":"Field 9","type":"Unknown","osm_type":"way","osm_id":201641134},"geometry":{"type":"Point","coordinates":[-122.0609342,47.5538523]}},{"type":"Feature","properties":{"name":"Field 2","type":"Unknown","osm_type":"way","osm_id":201641135},"geometry":{"type":"Point","coordinates":[-122.0532687,47.5532793]}},{"type":"Feature","properties":{"name":"Field 1","type":"Unknown","osm_type":"way","osm_id":201641136},"geometry":{"type":"Point","coordinates":[-122.053126,47.552567]}},{"type":"Feature","properties":{"name":"Field 8","type":"Unknown","osm_type":"way","osm_id":201641137},"geometry":{"type":"Point","coordinates":[-122.0618971,47.5539086]}},{"type":"Feature","properties":{"name":"Field 6","type":"Unknown","osm_type":"way","osm_id":201641138},"geometry":{"type":"Point","coordinates":[-122.0632301,47.5529489]}},{"type":"Feature","properties":{"name":"Field 4","type":"Unknown","osm_type":"way","osm_id":201641139},"geometry":{"type":"Point","coordinates":[-122.0613873,47.5527711]}},{"type":"Feature","properties":{"name":"Field 3","type":"Unknown","osm_type":"way","osm_id":201641140},"geometry":{"type":"Point","coordinates":[-122.0604942,47.5527003]}},{"type":"Feature","properties":{"name":"Field 5","type":"Unknown","osm_type":"way","osm_id":201641141},"geometry":{"type":"Point","coordinates":[-122.0623082,47.5528799]}},{"type":"Feature","properties":{"name":"Field 7","type":"Unknown","osm_type":"way","osm_id":201641142},"geometry":{"type":"Point","coordinates":[-122.0628874,47.5540717]}},{"type":"Feature","properties":{"name":"OSM way 384122627","type":"Unknown","osm_type":"way","osm_id":384122627},"geometry":{"type":"Point","coordinates":[-122.0058472,47.5452545]}},{"type":"Feature","properties":{"name":"OSM way 53033209","type":"Unknown","osm_type":"way","osm_id":53033209},"geometry":{"type":"Point","coordinates":[-122.0013388,47.5473808]}},{"type":"Feature","properties":{"name":"OSM way 53041856","type":"yes","osm_type":"way","osm_id":53041856},"geometry":{"type":"Point","coordinates":[-122.0018012,47.5441891]}},{"type":"Feature","properties":{"name":"Field 4","type":"yes","osm_type":"way","osm_id":154612825},"geometry":{"type":"Point","coordinates":[-122.0033851,47.540599]}},{"type":"Feature","properties":{"name":"Field 3","type":"yes","osm_type":"way","osm_id":154612842},"geometry":{"type":"Point","coordinates":[-122.0035139,47.5411785]}},{"type":"Feature","properties":{"name":"OSM way 1319912453","type":"Unknown","osm_type":"way","osm_id":1319912453},"geometry":{"type":"Point","coordinates":[-121.9341968,47.5248061]}},{"type":"Feature","properties":{"name":"OSM way 1319912454","type":"Unknown","osm_type":"way","osm_id":1319912454},"geometry":{"type":"Point","coordinates":[-121.9351362,47.5248048]}},{"type":"Feature","properties":{"name":"OSM way 1319912455","type":"Unknown","osm_type":"way","osm_id":1319912455},"geometry":{"type":"Point","coordinates":[-121.9351325,47.5241389]}},{"type":"Feature","properties":{"name":"OSM way 1319912456","type":"Unknown","osm_type":"way","osm_id":1319912456},"geometry":{"type":"Point","coordinates":[-121.9332889,47.5241274]}},{"type":"Feature","properties":{"name":"OSM way 1319912457","type":"Unknown","osm_type":"way","osm_id":1319912457},"geometry":{"type":"Point","coordinates":[-121.9342025,47.5241387]}},{"type":"Feature","properties":{"name":"Field 2","type":"Unknown","osm_type":"way","osm_id":1457940796},"geometry":{"type":"Point","coordinates":[-122.0019208,47.5439214]}},{"type":"Feature","properties":{"name":"Field 1","type":"Unknown","osm_type":"way","osm_id":1457940797},"geometry":{"type":"Point","coordinates":[-122.0017093,47.5444512]}},{"type":"Feature","properties":{"name":"Multi-Purpose Athletic Field","type":"Unknown","osm_type":"way","osm_id":244888486},"geometry":{"type":"Point","coordinates":[-122.0334069,47.5988725]}},{"type":"Feature","properties":{"name":"OSM way 62040377","type":"Unknown","osm_type":"way","osm_id":62040377},"geometry":{"type":"Point","coordinates":[-122.0294215,47.6124557]}},{"type":"Feature","properties":{"name":"Eastlake Community Sports Field","type":"Unknown","osm_type":"way","osm_id":368490429},"geometry":{"type":"Point","coordinates":[-122.0278785,47.6125309]}},{"type":"Feature","properties":{"name":"Eastlake Community Sports Field","type":"Unknown","osm_type":"way","osm_id":368490430},"geometry":{"type":"Point","coordinates":[-122.0278637,47.6119839]}},{"type":"Feature","properties":{"name":"Crusaders","type":"Unknown","osm_type":"way","osm_id":368495673},"geometry":{"type":"Point","coordinates":[-122.0261114,47.6084357]}},{"type":"Feature","properties":{"name":"Soccer Field #1","type":"Unknown","osm_type":"way","osm_id":29189067},"geometry":{"type":"Point","coordinates":[-122.1190878,47.6656057]}},{"type":"Feature","properties":{"name":"Soccer Field #2","type":"Unknown","osm_type":"way","osm_id":29189071},"geometry":{"type":"Point","coordinates":[-122.1189703,47.6664014]}},{"type":"Feature","properties":{"name":"Soccer Field #3","type":"Unknown","osm_type":"way","osm_id":29189080},"geometry":{"type":"Point","coordinates":[-122.1175662,47.6663877]}},{"type":"Feature","properties":{"name":"Soccer Field #4","type":"Unknown","osm_type":"way","osm_id":29189086},"geometry":{"type":"Point","coordinates":[-122.1177234,47.6653185]}},{"type":"Feature","properties":{"name":"OSM way 36023012","type":"Unknown","osm_type":"way","osm_id":36023012},"geometry":{"type":"Point","coordinates":[-122.0836064,47.6835193]}},{"type":"Feature","properties":{"name":"OSM way 36023025","type":"Unknown","osm_type":"way","osm_id":36023025},"geometry":{"type":"Point","coordinates":[-122.0823171,47.6829921]}},{"type":"Feature","properties":{"name":"Peter MacNair Activity Field","type":"Unknown","osm_type":"way","osm_id":259786183},"geometry":{"type":"Point","coordinates":[-122.1157008,47.6617743]}},{"type":"Feature","properties":{"name":"6","type":"Unknown","osm_type":"way","osm_id":259789432},"geometry":{"type":"Point","coordinates":[-122.1225419,47.6660046]}},{"type":"Feature","properties":{"name":"5","type":"Unknown","osm_type":"way","osm_id":259789436},"geometry":{"type":"Point","coordinates":[-122.1209989,47.6660354]}},{"type":"Feature","properties":{"name":"OSM way 69340905","type":"Unknown","osm_type":"way","osm_id":69340905},"geometry":{"type":"Point","coordinates":[-122.0565457,47.6265219]}},{"type":"Feature","properties":{"name":"OSM way 293136628","type":"Unknown","osm_type":"way","osm_id":293136628},"geometry":{"type":"Point","coordinates":[-122.0672947,47.6397488]}},{"type":"Feature","properties":{"name":"Margaret Mead Elementary Multiuse Sport Field","type":"Unknown","osm_type":"way","osm_id":1104863999},"geometry":{"type":"Point","coordinates":[-122.0531408,47.6251768]}},{"type":"Feature","properties":{"name":"OSM way 581826184","type":"Unknown","osm_type":"way","osm_id":581826184},"geometry":{"type":"Point","coordinates":[-122.0349275,47.6253003]}},{"type":"Feature","properties":{"name":"OSM way 582654916","type":"Unknown","osm_type":"way","osm_id":582654916},"geometry":{"type":"Point","coordinates":[-122.0277962,47.6216924]}},{"type":"Feature","properties":{"name":"OSM way 331021517","type":"Unknown","osm_type":"way","osm_id":331021517},"geometry":{"type":"Point","coordinates":[-122.164292,47.7538834]}},{"type":"Feature","properties":{"name":"OSM way 331021518","type":"Unknown","osm_type":"way","osm_id":331021518},"geometry":{"type":"Point","coordinates":[-122.1643025,47.7531299]}},{"type":"Feature","properties":{"name":"OSM way 419274037","type":"Unknown","osm_type":"way","osm_id":419274037},"geometry":{"type":"Point","coordinates":[-122.1202175,47.7665404]}},{"type":"Feature","properties":{"name":"Field 1","type":"Unknown","osm_type":"way","osm_id":479199367},"geometry":{"type":"Point","coordinates":[-122.1412165,47.7048007]}},{"type":"Feature","properties":{"name":"Field 2","type":"Unknown","osm_type":"way","osm_id":479199370},"geometry":{"type":"Point","coordinates":[-122.1411994,47.7054037]}},{"type":"Feature","properties":{"name":"Field 3","type":"Unknown","osm_type":"way","osm_id":479199373},"geometry":{"type":"Point","coordinates":[-122.1411775,47.7060213]}},{"type":"Feature","properties":{"name":"Field 4","type":"Unknown","osm_type":"way","osm_id":479199374},"geometry":{"type":"Point","coordinates":[-122.1411561,47.7066547]}},{"type":"Feature","properties":{"name":"Field 5","type":"Unknown","osm_type":"way","osm_id":479199375},"geometry":{"type":"Point","coordinates":[-122.1411377,47.7072833]}},{"type":"Feature","properties":{"name":"Field 6","type":"Unknown","osm_type":"way","osm_id":479199376},"geometry":{"type":"Point","coordinates":[-122.1397769,47.7047832]}},{"type":"Feature","properties":{"name":"Field 7","type":"Unknown","osm_type":"way","osm_id":479199377},"geometry":{"type":"Point","coordinates":[-122.1397563,47.7053845]}},{"type":"Feature","properties":{"name":"Field 8","type":"Unknown","osm_type":"way","osm_id":479199378},"geometry":{"type":"Point","coordinates":[-122.1397392,47.7060019]}},{"type":"Feature","properties":{"name":"Field 9","type":"Unknown","osm_type":"way","osm_id":479199379},"geometry":{"type":"Point","coordinates":[-122.1397166,47.7066342]}},{"type":"Feature","properties":{"name":"Field 10","type":"Unknown","osm_type":"way","osm_id":479199380},"geometry":{"type":"Point","coordinates":[-122.1396954,47.7072599]}},{"type":"Feature","properties":{"name":"Field 11","type":"Unknown","osm_type":"way","osm_id":479199381},"geometry":{"type":"Point","coordinates":[-122.138302,47.7049641]}},{"type":"Feature","properties":{"name":"Field 12","type":"Unknown","osm_type":"way","osm_id":479199382},"geometry":{"type":"Point","coordinates":[-122.1382836,47.7059916]}},{"type":"Feature","properties":{"name":"Field 13","type":"Unknown","osm_type":"way","osm_id":479199383},"geometry":{"type":"Point","coordinates":[-122.138245,47.7070019]}},{"type":"Feature","properties":{"name":"Field 14","type":"Unknown","osm_type":"way","osm_id":479199384},"geometry":{"type":"Point","coordinates":[-122.1371477,47.704964]}},{"type":"Feature","properties":{"name":"Field 15","type":"Unknown","osm_type":"way","osm_id":479199385},"geometry":{"type":"Point","coordinates":[-122.1371202,47.7059762]}},{"type":"Feature","properties":{"name":"Field 16","type":"Unknown","osm_type":"way","osm_id":479199386},"geometry":{"type":"Point","coordinates":[-122.1370918,47.706987]}},{"type":"Feature","properties":{"name":"OSM way 535446020","type":"Unknown","osm_type":"way","osm_id":535446020},"geometry":{"type":"Point","coordinates":[-122.138558,47.704719]}},{"type":"Feature","properties":{"name":"OSM way 535446021","type":"Unknown","osm_type":"way","osm_id":535446021},"geometry":{"type":"Point","coordinates":[-122.1380693,47.7047111]}},{"type":"Feature","properties":{"name":"OSM way 535446022","type":"Unknown","osm_type":"way","osm_id":535446022},"geometry":{"type":"Point","coordinates":[-122.1380539,47.7052056]}},{"type":"Feature","properties":{"name":"OSM way 535446023","type":"Unknown","osm_type":"way","osm_id":535446023},"geometry":{"type":"Point","coordinates":[-122.1385345,47.705214]}},{"type":"Feature","properties":{"name":"OSM way 823271886","type":"Unknown","osm_type":"way","osm_id":823271886},"geometry":{"type":"Point","coordinates":[-122.1119221,47.7076557]}},{"type":"Feature","properties":{"name":"Walter L. Seabloom Field","type":"Unknown","osm_type":"way","osm_id":33968157},"geometry":{"type":"Point","coordinates":[-122.1098994,47.6943711]}},{"type":"Feature","properties":{"name":"OSM way 263285328","type":"Unknown","osm_type":"way","osm_id":263285328},"geometry":{"type":"Point","coordinates":[-122.1180389,47.6761231]}},{"type":"Feature","properties":{"name":"OSM way 480181183","type":"Unknown","osm_type":"way","osm_id":480181183},"geometry":{"type":"Point","coordinates":[-122.1141186,47.6915599]}},{"type":"Feature","properties":{"name":"OSM way 105764426","type":"Unknown","osm_type":"way","osm_id":105764426},"geometry":{"type":"Point","coordinates":[-122.073233,47.6952416]}},{"type":"Feature","properties":{"name":"OSM way 392534923","type":"Unknown","osm_type":"way","osm_id":392534923},"geometry":{"type":"Point","coordinates":[-122.0418615,47.7203453]}},{"type":"Feature","properties":{"name":"OSM way 232722279","type":"Unknown","osm_type":"way","osm_id":232722279},"geometry":{"type":"Point","coordinates":[-122.0597207,47.6710827]}},{"type":"Feature","properties":{"name":"Field 17","type":"Unknown","osm_type":"way","osm_id":479199387},"geometry":{"type":"Point","coordinates":[-122.138046,47.7033663]}},{"type":"Feature","properties":{"name":"Field 18","type":"Unknown","osm_type":"way","osm_id":479199388},"geometry":{"type":"Point","coordinates":[-122.1380717,47.7023104]}},{"type":"Feature","properties":{"name":"Field 19","type":"Unknown","osm_type":"way","osm_id":479199389},"geometry":{"type":"Point","coordinates":[-122.1391588,47.703378]}},{"type":"Feature","properties":{"name":"Field 20","type":"Unknown","osm_type":"way","osm_id":479199390},"geometry":{"type":"Point","coordinates":[-122.1391878,47.7023811]}},{"type":"Feature","properties":{"name":"Field 21","type":"Unknown","osm_type":"way","osm_id":479199391},"geometry":{"type":"Point","coordinates":[-122.1402784,47.7033899]}},{"type":"Feature","properties":{"name":"Field 22","type":"Unknown","osm_type":"way","osm_id":479199392},"geometry":{"type":"Point","coordinates":[-122.1403063,47.7023873]}},{"type":"Feature","properties":{"name":"Field 23","type":"Unknown","osm_type":"way","osm_id":479199393},"geometry":{"type":"Point","coordinates":[-122.1414657,47.7031628]}},{"type":"Feature","properties":{"name":"Field 24","type":"Unknown","osm_type":"way","osm_id":479199394},"geometry":{"type":"Point","coordinates":[-122.1414983,47.7023487]}},{"type":"Feature","properties":{"name":"OSM way 260320012","type":"Unknown","osm_type":"way","osm_id":260320012},"geometry":{"type":"Point","coordinates":[-122.0337577,47.6846744]}},{"type":"Feature","properties":{"name":"OSM way 851367550","type":"Unknown","osm_type":"way","osm_id":851367550},"geometry":{"type":"Point","coordinates":[-122.0310826,47.6862009]}},{"type":"Feature","properties":{"name":"OSM relation 7678886","type":"Unknown","osm_type":"relation","osm_id":7678886},"geometry":{"type":"Point","coordinates":[-122.0343478,47.6914394]}},{"type":"Feature","properties":{"name":"OSM way 1082440282","type":"Unknown","osm_type":"way","osm_id":1082440282},"geometry":{"type":"Point","coordinates":[-121.9868757,47.7210936]}},{"type":"Feature","properties":{"name":"OSM way 943142604","type":"Unknown","osm_type":"way","osm_id":943142604},"geometry":{"type":"Point","coordinates":[-121.9560481,47.7218244]}},{"type":"Feature","properties":{"name":"OSM way 943142605","type":"Unknown","osm_type":"way","osm_id":943142605},"geometry":{"type":"Point","coordinates":[-121.9564495,47.7216632]}},{"type":"Feature","properties":{"name":"OSM relation 12714385","type":"Unknown","osm_type":"relation","osm_id":12714385},"geometry":{"type":"Point","coordinates":[-121.9553806,47.7220245]}},{"type":"Feature","properties":{"name":"OSM way 363040026","type":"Unknown","osm_type":"way","osm_id":363040026},"geometry":{"type":"Point","coordinates":[-121.9089364,47.6422563]}},{"type":"Feature","properties":{"name":"OSM way 1117069607","type":"Unknown","osm_type":"way","osm_id":1117069607},"geometry":{"type":"Point","coordinates":[-121.9055913,47.5709348]}},{"type":"Feature","properties":{"name":"OSM way 485118345","type":"yes","osm_type":"way","osm_id":485118345},"geometry":{"type":"Point","coordinates":[-121.8811816,47.5177891]}},{"type":"Feature","properties":{"name":"OSM way 485118346","type":"Unknown","osm_type":"way","osm_id":485118346},"geometry":{"type":"Point","coordinates":[-121.8807126,47.51875]}},{"type":"Feature","properties":{"name":"OSM way 485118347","type":"Unknown","osm_type":"way","osm_id":485118347},"geometry":{"type":"Point","coordinates":[-121.8816487,47.5192318]}},{"type":"Feature","properties":{"name":"OSM way 559940002","type":"Unknown","osm_type":"way","osm_id":559940002},"geometry":{"type":"Point","coordinates":[-121.8742534,47.5335356]}},{"type":"Feature","properties":{"name":"OSM way 559940005","type":"Unknown","osm_type":"way","osm_id":559940005},"geometry":{"type":"Point","coordinates":[-121.8716541,47.5333426]}},{"type":"Feature","properties":{"name":"OSM way 166286753","type":"Unknown","osm_type":"way","osm_id":166286753},"geometry":{"type":"Point","coordinates":[-121.8076951,47.5211131]}},{"type":"Feature","properties":{"name":"OSM way 166303175","type":"Unknown","osm_type":"way","osm_id":166303175},"geometry":{"type":"Point","coordinates":[-121.8120194,47.520058]}},{"type":"Feature","properties":{"name":"OSM way 164863955","type":"Unknown","osm_type":"way","osm_id":164863955},"geometry":{"type":"Point","coordinates":[-121.7140144,47.4745493]}},{"type":"Feature","properties":{"name":"OSM way 608118770","type":"Unknown","osm_type":"way","osm_id":608118770},"geometry":{"type":"Point","coordinates":[-121.7753821,47.4924884]}},{"type":"Feature","properties":{"name":"OSM way 1393688729","type":"private","osm_type":"way","osm_id":1393688729},"geometry":{"type":"Point","coordinates":[-121.7977929,47.5072695]}},{"type":"Feature","properties":{"name":"OSM way 1393688730","type":"private","osm_type":"way","osm_id":1393688730},"geometry":{"type":"Point","coordinates":[-121.7984812,47.506731]}}]}